      2.10          N: GNSS NAV DATA                        RINEX VERSION / TYPE
fic2rin                                 08/11/2024 00:59:02 PGM / RUN BY / DATE
                                                            END OF HEADER
12 24  8 10 13 59 44.0 -.529271084815D-03 -.295585778076D-11  .000000000000D+00
     .110000000000D+02  .611562500000D+02  .449232998072D-08  .157048301070D+01
     .312179327011D-05  .866257736925D-02  .670924782753D-05  .515361176872D+04
     .568784000000D+06 -.651925802231D-07 -.125934042257D+01 -.234693288803D-06
     .961571186374D+00  .248843750000D+03  .145910612583D+01 -.813819613139D-08
     .286797660559D-09  .100000000000D+01  .232600000000D+04  .000000000000D+00
     .240000000000D+01  .000000000000D+00 -.125728547573D-07  .110000000000D+02
     .567150000000D+06  .400000000000D+01
19 24  8 10 15 59 28.0  .522708054632D-03  .522959453519D-11  .000000000000D+00
     .920000000000D+02 -.117812500000D+02  .454697511405D-08  .180044579790D+01
    -.717118382454D-06  .998848082963D-02  .464729964733D-05  .515372480774D+04
     .575968000000D+06  .409781932831D-07 -.176344409681D+00  .128522515297D-06
     .967204044182D+00  .292937500000D+03  .261847151684D+01 -.813105297671D-08
    -.231081054025D-09  .100000000000D+01  .232600000000D+04  .000000000000D+00
     .240000000000D+01  .000000000000D+00 -.153668224812D-07  .920000000000D+02
     .568800000000D+06  .400000000000D+01
12 24  8 10 15 59 44.0 -.529292505234D-03 -.295585778076D-11  .000000000000D+00
     .120000000000D+02  .666562500000D+02  .436089593453D-08  .262070147506D+01
     .347755849361D-05  .866209226660D-02  .683777034283D-05  .515361222839D+04
     .575984000000D+06  .856816768646D-07 -.125939734179D+01 -.558793544769D-08
     .961574074174D+00  .245218750000D+03  .145910571329D+01 -.788247119371D-08
     .212866009581D-09  .100000000000D+01  .232600000000D+04  .000000000000D+00
     .240000000000D+01  .000000000000D+00 -.125728547573D-07  .120000000000D+02
     .568800000000D+06  .400000000000D+01
8  24  8 10 15 59 44.0  .310282222927D-03  .147792889038D-10  .000000000000D+00
     .180000000000D+02 -.115937500000D+02  .492091926175D-08 -.890149926775D-01
    -.435858964920D-06  .955366645940D-02  .447407364845D-05  .515366640091D+04
     .575984000000D+06  .126659870148D-06 -.316463124634D+00  .204890966415D-07
     .952142976325D+00  .288218750000D+03  .366904158185D+00 -.854214152877D-08
    -.739316509786D-10  .100000000000D+01  .232600000000D+04  .000000000000D+00
     .240000000000D+01  .000000000000D+00  .465661287308D-08  .180000000000D+02
     .568800000000D+06  .400000000000D+01
2  24  8 10 16  0  0.0 -.381696503609D-03  .761701812735D-11  .000000000000D+00
     .610000000000D+02 -.263437500000D+02  .446518599292D-08  .906474322408D-01
    -.156648457050D-05  .160370281665D-01  .887922942638D-05  .515369254494D+04
     .576000000000D+06 -.117346644402D-06  .681397094970D+00 -.178813934326D-06
     .967303701088D+00  .215406250000D+03 -.114870235814D+01 -.828820237975D-08
    -.307155651409D-10  .100000000000D+01  .232600000000D+04  .000000000000D+00
     .340000000000D+01  .000000000000D+00 -.176951289177D-07  .610000000000D+02
     .568800000000D+06  .400000000000D+01
1  24  8 10 16  0  0.0  .224624294788D-03 -.818545231596D-11  .000000000000D+00
     .260000000000D+02  .606875000000D+02  .595631953319D-08  .133948174771D+01
     .311248004436D-05  .133567336015D-01  .700913369656D-05  .515360656738D+04
     .576000000000D+06 -.251457095146D-06 -.131254571883D+01 -.111758708954D-07
     .953615599403D+00  .242406250000D+03  .103403998894D+01 -.836356266167D-08
     .100718481043D-09  .100000000000D+01  .232600000000D+04  .000000000000D+00
     .240000000000D+01  .630000000000D+02 -.195577740669D-07  .260000000000D+02
     .568800000000D+06  .400000000000D+01
5  24  8 10 16  0  0.0 -.182747375220D-03 -.125055521494D-11  .000000000000D+00
     .470000000000D+02  .775000000000D+01  .452411701906D-08  .240344145424D+00
     .642612576485D-06  .593923265114D-02  .743195414543D-05  .515365255356D+04
     .576000000000D+06  .335276126862D-07  .176527737455D+01  .149011611938D-07
     .972180228786D+00  .242625000000D+03  .130707051971D+01 -.815712549130D-08
     .271082720255D-09  .100000000000D+01  .232600000000D+04  .000000000000D+00
     .240000000000D+01  .000000000000D+00 -.107102096081D-07  .470000000000D+02
     .568800000000D+06  .400000000000D+01
10 24  8 10 16  0  0.0 -.900817103684D-04 -.109139364213D-10  .000000000000D+00
     .290000000000D+02  .112812500000D+02  .417303096635D-08  .188340584286D+01
     .573694705963D-06  .950920372270D-02  .714883208275D-05  .515368785095D+04
     .576000000000D+06 -.307336449623D-06  .181506271797D+01 -.558793544769D-07
     .984902298368D+00  .258281250000D+03 -.237959334700D+01 -.790640076190D-08
     .309655755548D-09  .100000000000D+01  .232600000000D+04  .000000000000D+00
     .240000000000D+01  .000000000000D+00  .232830643654D-08  .290000000000D+02
     .568800000000D+06  .400000000000D+01
7  24  8 10 16  0  0.0 -.540236942470D-04  .613908923697D-11  .000000000000D+00
     .520000000000D+02  .562500000000D+00  .437803950578D-08 -.293029219676D+01
    -.949949026108D-07  .186955990503D-01  .106710940599D-04  .515362525749D+04
     .576000000000D+06  .191852450371D-06 -.237548914934D+01 -.210478901863D-06
     .950468788006D+00  .163093750000D+03 -.210540571533D+01 -.763853246125D-08
    -.166435504135D-09  .100000000000D+01  .232600000000D+04  .000000000000D+00
     .240000000000D+01  .000000000000D+00 -.111758708954D-07  .520000000000D+02
     .568800000000D+06  .400000000000D+01
6  24  8 10 16  0  0.0  .107059720904D-03 -.242152964347D-10  .000000000000D+00
     .840000000000D+02 -.363125000000D+02  .387730436243D-08 -.202660501564D+01
    -.176951289177D-05  .294728379231D-02  .950694084167D-05  .515367460251D+04
     .576000000000D+06 -.707805156708D-07  .781337829880D+00  .260770320892D-07
     .989759691098D+00  .213906250000D+03 -.727854817640D+00 -.768746307084D-08
    -.714315468392D-11  .100000000000D+01  .232600000000D+04  .000000000000D+00
     .240000000000D+01  .000000000000D+00  .372529029846D-08  .840000000000D+02
     .568800000000D+06  .400000000000D+01
3  24  8 10 16  0  0.0  .494584441185D-03  .151203494170D-10  .000000000000D+00
     .139000000000D+03  .175000000000D+02  .411159983607D-08  .281558656176D+01
     .786036252975D-06  .571816472802D-02  .709481537342D-05  .515368031120D+04
     .576000000000D+06 -.149011611938D-07  .181762040641D+01 -.106170773506D-06
     .985254162351D+00  .251750000000D+03  .114278742925D+01 -.779961059937D-08
     .280011663610D-09  .100000000000D+01  .232600000000D+04  .000000000000D+00
     .240000000000D+01  .000000000000D+00  .139698386192D-08  .139000000000D+03
     .568800000000D+06  .400000000000D+01
4  24  8 10 16  0  0.0  .421470962465D-03  .750333128963D-11  .000000000000D+00
     .690000000000D+02 -.449687500000D+02  .460769192886D-08 -.416190251560D+00
    -.255182385445D-05  .293634145055D-02  .637024641037D-05  .515371432686D+04
     .576000000000D+06  .409781932831D-07  .289569815601D+01  .745058059692D-08
     .965765524651D+00  .259468750000D+03 -.298726644106D+01 -.812105256015D-08
    -.297869550320D-09  .100000000000D+01  .232600000000D+04  .000000000000D+00
     .240000000000D+01  .000000000000D+00 -.465661287308D-08  .837000000000D+03
     .568800000000D+06  .400000000000D+01
22 24  8 10 16  0  0.0 -.497377477586D-04 -.420641299570D-11  .000000000000D+00
     .230000000000D+02  .686875000000D+02  .463305012799D-08  .408551199100D+00
     .349059700966D-05  .142005408416D-01  .690110027790D-05  .515369357300D+04
     .576000000000D+06 -.242143869400D-07 -.123831623145D+01 -.214204192162D-06
     .960349547373D+00  .247218750000D+03 -.112569180368D+01 -.841713632180D-08
     .173578658819D-09  .100000000000D+01  .232600000000D+04  .000000000000D+00
     .240000000000D+01  .000000000000D+00 -.111758708954D-07  .230000000000D+02
     .568800000000D+06  .400000000000D+01
27 24  8 10 16  0  0.0 -.328193418682D-04 -.568434188608D-12  .000000000000D+00
     .250000000000D+02 -.906250000000D+01  .472591113888D-08 -.361035044959D-01
    -.381842255592D-06  .125502732117D-01  .480003654957D-05  .515368175507D+04
     .576000000000D+06  .428408384323D-07 -.289359084007D+00  .165775418282D-06
     .961187164526D+00  .291125000000D+03  .797572011744D+00 -.847178145513D-08
    -.982183769039D-10  .100000000000D+01  .232600000000D+04  .000000000000D+00
     .240000000000D+01  .000000000000D+00  .186264514923D-08  .250000000000D+02
     .568800000000D+06  .400000000000D+01
17 24  8 10 16  0  0.0  .657990109175D-03 -.920863385545D-11  .000000000000D+00
     .150000000000D+02 -.108437500000D+02  .459411993496D-08 -.145243690028D+00
    -.827014446259D-06  .134603214683D-01  .496953725815D-05  .515377436447D+04
     .576000000000D+06 -.255182385445D-06 -.220601284746D+00 -.838190317154D-07
     .967980817109D+00  .288062500000D+03 -.131189513722D+01 -.844606609827D-08
    -.746459664470D-10  .100000000000D+01  .232600000000D+04  .000000000000D+00
     .240000000000D+01  .000000000000D+00 -.111758708954D-07  .150000000000D+02
     .568800000000D+06  .400000000000D+01
24 24  8 10 16  0  0.0 -.485914759338D-03 -.795807864051D-12  .000000000000D+00
     .470000000000D+02 -.233125000000D+02  .483198698594D-08 -.195724301951D+01
    -.119768083096D-05  .156526335049D-01  .953301787376D-05  .515370568275D+04
     .576000000000D+06  .212341547012D-06 -.247381964740D+01 -.206753611565D-06
     .934250756757D+00  .179687500000D+03  .995029628189D+00 -.790961518151D-08
    -.196079596074D-09  .100000000000D+01  .232600000000D+04  .000000000000D+00
     .240000000000D+01  .000000000000D+00  .232830643654D-08  .470000000000D+02
     .568800000000D+06  .400000000000D+01
